NORAD_CAT_ID,OBJECT_NAME,OBJECT_TYPE,EPOCH,MEAN_MOTION,ECCENTRICITY,INCLINATION,RA_OF_ASC_NODE,ARG_OF_PERICENTER,MEAN_ANOMALY,BSTAR,MEAN_MOTION_DOT,MEAN_MOTION_DDOT,TLE_LINE0,TLE_LINE1,TLE_LINE2,SEMIMAJOR_AXIS,PERIOD,APOGEE,PERIGEE,DECAYED
52833.0,STARLINK-4086,PAYLOAD,2023-03-18 16:51:52,15.08856888,0.0001232,53.2135,233.7952,96.1647,263.9486,0.00060363,9.336e-05,0.0,0 STARLINK-4086,1 52833U 22062D   23077.70269356  .00009336  00000-0  60363-3 0  9992,2 52833  53.2135 233.7952 0001232  96.1647 263.9486 15.08856888 41688,6917.829,95.436,540.546,538.841,0.0
52833.0,STARLINK-4086,PAYLOAD,2023-03-19 13:31:53,15.08849129,0.0001129,53.2141,229.9294,68.4829,291.6283,0.00027621,4.112e-05,0.0,0 STARLINK-4086,1 52833U 22062D   23078.56381357  .00004112  00000-0  27621-3 0  9990,2 52833  53.2141 229.9294 0001129  68.4829 291.6283 15.08849129 41818,6917.852,95.437,540.499,538.936,0.0
52833.0,STARLINK-4086,PAYLOAD,2023-03-19 15:07:16,15.08850721,0.0001187,53.2144,229.6324,68.6169,291.495,0.00031807,4.779e-05,0.0,0 STARLINK-4086,1 52833U 22062D   23078.63005301  .00004779  00000-0  31807-3 0  9990,2 52833  53.2144 229.6324 0001187  68.6169 291.4950 15.08850721 41825,6917.848,95.437,540.534,538.891,0.0
52833.0,STARLINK-4086,PAYLOAD,2023-03-19 19:53:25,15.08852858,0.0001167,53.214,228.7402,70.4635,289.6483,0.00036827,5.58e-05,0.0,0 STARLINK-4086,1 52833U 22062D   23078.82877135  .00005580  00000-0  36827-3 0  9991,2 52833  53.2140 228.7402 0001167  70.4635 289.6483 15.08852858 41851,6917.841,95.437,540.513,538.899,0.0
52833.0,STARLINK-4086,PAYLOAD,2023-03-20 13:22:40,15.08841924,0.0001275,53.2144,225.468,68.8073,291.3055,0.0001085,1.439e-05,0.0,0 STARLINK-4086,1 52833U 22062D   23079.55741307  .00001439  00000-0  10850-3 0  9990,2 52833  53.2144 225.4680 0001275  68.8073 291.3055 15.08841924 41963,6917.875,95.437,540.622,538.857,0.0
52833.0,STARLINK-4086,PAYLOAD,2023-03-20 14:58:03,15.08844723,0.000128,53.2144,225.1707,74.0593,286.054,8.1722e-05,1.013e-05,0.0,0 STARLINK-4086,1 52833U 22062D   23079.62365215  .00001013  00000-0  81722-4 0  9993,2 52833  53.2144 225.1707 0001280  74.0593 286.0540 15.08844723 41973,6917.866,95.437,540.616,538.845,0.0
52833.0,STARLINK-4086,PAYLOAD,2023-03-20 16:33:26,15.08849021,0.0001042,53.2147,224.8738,71.5108,288.5997,0.0001638,2.321e-05,0.0,0 STARLINK-4086,1 52833U 22062D   23079.68989045  .00002321  00000-0  16380-3 0  9992,2 52833  53.2147 224.8738 0001042  71.5108 288.5997 15.08849021 41986,6917.853,95.437,540.439,538.997,0.0
52833.0,STARLINK-4086,PAYLOAD,2023-03-20 21:19:35,15.08864149,0.0001241,53.2161,223.9824,80.8971,279.2161,0.00045392,6.948e-05,0.0,0 STARLINK-4086,1 52833U 22062D   23079.88860272  .00006948  00000-0  45392-3 0  9998,2 52833  53.2161 223.9824 0001241  80.8971 279.2161 15.08864149 42013,6917.807,95.436,540.53,538.813,0.0
52833.0,STARLINK-4086,PAYLOAD,2023-03-21 08:27:17,15.08833884,8.79e-05,53.2161,221.9002,82.5694,277.5398,-0.00016193,-2.863e-05,0.0,0 STARLINK-4086,1 52833U 22062D   23080.35229133 -.00002863  00000-0 -16193-3 0  9998,2 52833  53.2161 221.9002 0000879  82.5694 277.5398 15.08833884 42088,6917.899,95.438,540.372,539.156,0.0
52833.0,STARLINK-4086,PAYLOAD,2023-03-21 10:02:41,15.08837898,8.38e-05,53.2167,221.6037,70.0191,290.0891,-4.0657e-05,-9.35e-06,0.0,0 STARLINK-4086,1 52833U 22062D   23080.41853141 -.00000935  00000-0 -40657-4 0  9998,2 52833  53.2167 221.6037 0000838  70.0191 290.0891 15.08837898 42096,6917.887,95.438,540.332,539.172,0.0
52833.0,STARLINK-4086,PAYLOAD,2023-03-21 13:13:27,15.0884636,0.0001129,53.2158,221.008,78.6707,281.4412,0.00027416,4.079e-05,0.0,0 STARLINK-4086,1 52833U 22062D   23080.55100825  .00004079  00000-0  27416-3 0  9995,2 52833  53.2158 221.0080 0001129  78.6707 281.4412 15.08846360 42119,6917.861,95.437,540.507,538.945,0.0
52833.0,STARLINK-4086,PAYLOAD,2023-03-22 13:04:14,15.08845658,0.0001405,53.2166,216.5475,106.196,253.9186,0.00035932,5.436e-05,0.0,0 STARLINK-4086,1 52833U 22062D   23081.54461027  .00005436  00000-0  35932-3 0  9999,2 52833  53.2166 216.5475 0001405 106.1960 253.9186 15.08845658 42267,6917.863,95.437,540.7,538.756,0.0
52833.0,STARLINK-4086,PAYLOAD,2023-03-22 16:15:00,15.08846441,0.0001434,53.2165,215.9542,101.2967,258.8187,0.00055201,8.51e-05,0.0,0 STARLINK-4086,1 52833U 22062D   23081.67709116  .00008510  00000-0  55201-3 0  9994,2 52833  53.2165 215.9542 0001434 101.2967 258.8187 15.08846441 42287,6917.861,95.437,540.718,538.734,0.0
52833.0,STARLINK-4086,PAYLOAD,2023-03-23 12:55:01,15.08830388,9.84e-05,53.2154,212.0891,86.2243,273.8862,-5.4052e-05,-1.148e-05,0.0,0 STARLINK-4086,1 52833U 22062D   23082.53821527 -.00001148  00000-0 -54052-4 0  9997,2 52833  53.2154 212.0891 0000984  86.2243 273.8862 15.08830388 42413,6917.91,95.438,540.455,539.094,0.0
52833.0,STARLINK-4086,PAYLOAD,2023-03-23 14:30:24,15.08835465,0.0001138,53.2143,211.7896,114.6987,245.4124,0.00016022,2.263e-05,0.0,0 STARLINK-4086,1 52833U 22062D   23082.60445233  .00002263  00000-0  16022-3 0  9992,2 52833  53.2143 211.7896 0001138 114.6987 245.4124 15.08835465 42423,6917.894,95.438,540.547,538.972,0.0
52833.0,STARLINK-4086,PAYLOAD,2023-03-24 01:38:06,15.08867928,9.81e-05,53.2143,209.7104,87.1027,273.0077,0.0010387,0.00016294,0.0,0 STARLINK-4086,1 52833U 22062D   23083.06812692  .00016294  00000-0  10387-2 0  9996,2 52833  53.2143 209.7104 0000981  87.1027 273.0077 15.08867928 42496,6917.795,95.436,540.339,538.981,0.0
52833.0,STARLINK-4086,PAYLOAD,2023-03-24 12:45:46,15.08914632,0.0001095,53.2139,207.6295,82.305,277.8066,0.0025523,0.0004065,0.0,0 STARLINK-4086,1 52833U 22062D   23083.53179227  .00040650  00000-0  25523-2 0  9999,2 52833  53.2139 207.6295 0001095  82.3050 277.8066 15.08914632 42562,6917.652,95.433,540.275,538.76,0.0
52833.0,STARLINK-4086,PAYLOAD,2023-03-24 14:21:09,15.08924312,0.0001163,53.2139,207.3308,86.2906,273.8219,0.0028615,0.00045654,0.0,0 STARLINK-4086,1 52833U 22062D   23083.59802854  .00045654  00000-0  28615-2 0  9998,2 52833  53.2139 207.3308 0001163  86.2906 273.8219 15.08924312 42576,6917.623,95.432,540.292,538.683,0.0
52833.0,STARLINK-4086,PAYLOAD,2023-03-25 01:28:51,15.08884913,0.0001794,53.2151,205.251,59.6609,300.4561,0.00043526,6.654e-05,0.0,0 STARLINK-4086,1 52833U 22062D   23084.06170146  .00006654  00000-0  43526-3 0  9999,2 52833  53.2151 205.2510 0001794  59.6609 300.4561 15.08884913 42643,6917.743,95.435,540.849,538.367,0.0
52833.0,STARLINK-4086,PAYLOAD,2023-03-25 12:36:35,15.08793738,0.0001406,53.2138,203.1689,91.4512,268.6641,0.0010841,0.00016986,0.0,0 STARLINK-4086,1 52833U 22062D   23084.52540618  .00016986  00000-0  10841-2 0  9997,2 52833  53.2138 203.1689 0001406  91.4512 268.6641 15.08793738 42715,6918.022,95.44,540.859,538.914,0.0
52833.0,STARLINK-4086,PAYLOAD,2023-03-25 14:11:58,15.08797357,0.0001551,53.2141,202.8703,95.3243,264.7926,0.0018467,0.0002919,0.0,0 STARLINK-4086,1 52833U 22062D   23084.59164913  .00029190  00000-0  18467-2 0  9997,2 52833  53.2141 202.8703 0001551  95.3243 264.7926 15.08797357 42722,6918.011,95.44,540.949,538.803,0.0
52833.0,STARLINK-4086,PAYLOAD,2023-03-26 12:27:24,15.08812935,0.0001957,53.2152,198.7093,82.1637,277.9578,0.00075136,0.00011681,0.0,0 STARLINK-4086,1 52833U 22062D   23085.51903439  .00011681  00000-0  75136-3 0  9997,2 52833  53.2152 198.7093 0001957  82.1637 277.9578 15.08812935 42864,6917.963,95.439,541.182,538.474,0.0
52833.0,STARLINK-4086,PAYLOAD,2023-03-26 14:02:47,15.08816811,0.0001937,53.2153,198.4106,87.5698,272.5516,0.00065727,0.00010181,0.0,0 STARLINK-4086,1 52833U 22062D   23085.58527406  .00010181  00000-0  65727-3 0  9999,2 52833  53.2153 198.4106 0001937  87.5698 272.5516 15.08816811 42872,6917.951,95.439,541.156,538.476,0.0
52833.0,STARLINK-4086,PAYLOAD,2023-03-27 12:18:10,15.08864737,0.0001894,53.2165,194.2464,100.6722,259.4483,0.001245,0.00019595,0.0,0 STARLINK-4086,1 52833U 22062D   23086.51262727  .00019595  00000-0  12450-2 0  9997,2 52833  53.2165 194.2464 0001894 100.6722 259.4483 15.08864737 43017,6917.805,95.436,540.98,538.36,0.0
52833.0,STARLINK-4086,PAYLOAD,2023-03-27 13:53:33,15.08869832,0.0001886,53.216,193.9476,101.988,258.1324,0.0013526,0.00021322,0.0,0 STARLINK-4086,1 52833U 22062D   23086.57886543  .00021322  00000-0  13526-2 0  9997,2 52833  53.2160 193.9476 0001886 101.9880 258.1324 15.08869832 43023,6917.789,95.436,540.959,538.35,0.0
52833.0,STARLINK-4086,PAYLOAD,2023-03-28 07:22:48,15.08858113,0.0001487,53.2151,190.6776,103.9495,256.1663,0.0011993,0.0001886,0.0,0 STARLINK-4086,1 52833U 22062D   23087.30750393  .00018860  00000-0  11993-2 0  9991,2 52833  53.2151 190.6776 0001487 103.9495 256.1663 15.08858113 43137,6917.825,95.436,540.719,538.661,0.0
52833.0,STARLINK-4086,PAYLOAD,2023-03-28 12:08:57,15.08859321,0.0001775,53.2155,189.7847,104.1857,255.9333,0.0013009,0.00020487,0.0,0 STARLINK-4086,1 52833U 22062D   23087.50622291  .00020487  00000-0  13009-2 0  9996,2 52833  53.2155 189.7847 0001775 104.1857 255.9333 15.08859321 43160,6917.821,95.436,540.914,538.458,0.0
52833.0,STARLINK-4086,PAYLOAD,2023-03-29 07:13:35,15.08844022,0.0001835,53.2153,186.2173,108.1116,252.0076,0.00021846,3.191e-05,0.0,0 STARLINK-4086,1 52833U 22062D   23088.30110239  .00003191  00000-0  21846-3 0  9991,2 52833  53.2153 186.2173 0001835 108.1116 252.0076 15.08844022 43288,6917.868,95.437,541.003,538.464,0.0
52833.0,STARLINK-4086,PAYLOAD,2023-03-29 11:59:44,15.08848236,0.000179,53.2159,185.3253,105.0443,255.0748,3.1346e-05,2.11e-06,0.0,0 STARLINK-4086,1 52833U 22062D   23088.49982056  .00000211  00000-0  31346-4 0  9992,2 52833  53.2159 185.3253 0001790 105.0443 255.0748 15.08848236 43316,6917.855,95.437,540.959,538.482,0.0
52833.0,STARLINK-4086,PAYLOAD,2023-03-30 07:04:22,15.0883414,0.0001686,53.2165,181.758,94.8626,265.2559,-1.2347e-05,-4.85e-06,0.0,0 STARLINK-4086,1 52833U 22062D   23089.29470897 -.00000485  00000-0 -12347-4 0  9991,2 52833  53.2165 181.7580 0001686  94.8626 265.2559 15.08834140 43433,6917.898,95.438,540.93,538.597,0.0
